start=new Date('%Y-%m-41T00:00:00.000Z').valueOf();
sats=[{"COUNTRY_CODE":"US","RCS_SIZE":"LARGE","LAUNCH_DATE":"2021-02-04","MEAN_ELEMENT_THEORY":"SGP4","REV_AT_EPOCH":"3113","NORAD_CAT_ID":"47564","INCLINATION":"53.0550","MEAN_ANOMALY":"198.3375","REF_FRAME":"TEME","SITE":"AFETR","PERIAPSIS":"546.986","EPOCH":"2021-08-21T08:53:36.556800","MEAN_MOTION_DDOT":"0.0000000000000","EPHEMERIS_TYPE":"0","TLE_LINE2":"2 47564  53.0550 269.5626 0000268 161.7624 198.3375 15.06413585 31137","MEAN_MOTION_DOT":"0.00000352","OBJECT_NAME":"STARLINK-1963","MEAN_MOTION":"15.06413585","PERIOD":"95.591","ELEMENT_SET_NO":"999","CLASSIFICATION_TYPE":"U","RA_OF_ASC_NODE":"269.5626","CENTER_NAME":"EARTH","OBJECT_TYPE":"PAYLOAD","ECCENTRICITY":"0.00002680","BSTAR":"0.00004248100000","TLE_LINE1":"1 47564U 21009S   21233.37056200  .00000352  00000-0  42481-4 0  9995","TIME_SYSTEM":"UTC","SEMIMAJOR_AXIS":"6925.307","ARG_OF_PERICENTER":"161.7624","APOAPSIS":"547.358","FILE":"3100818","DECAY_DATE":null,"OBJECT_ID":"2021-009S","GP_ID":"183164195"},{"COUNTRY_CODE":"US","RCS_SIZE":"LARGE","MEAN_ELEMENT_THEORY":"SGP4","LAUNCH_DATE":"2021-02-04","REV_AT_EPOCH":"3113","NORAD_CAT_ID":"47565","INCLINATION":"53.0548","MEAN_ANOMALY":"345.4227","PERIAPSIS":"547.067","SITE":"AFETR","REF_FRAME":"TEME","EPOCH":"2021-08-21T08:48:16.836192","MEAN_MOTION_DDOT":"0.0000000000000","EPHEMERIS_TYPE":"0","TLE_LINE2":"2 47565  53.0548 269.5782 0000195  14.6768 345.4227 15.06403685 31133","MEAN_MOTION_DOT":"0.00000606","PERIOD":"95.592","ELEMENT_SET_NO":"999","OBJECT_NAME":"STARLINK-1964","MEAN_MOTION":"15.06403685","RA_OF_ASC_NODE":"269.5782","CENTER_NAME":"EARTH","CLASSIFICATION_TYPE":"U","ECCENTRICITY":"0.00001950","OBJECT_TYPE":"PAYLOAD","TLE_LINE1":"1 47565U 21009T   21233.36686153  .00000606  00000-0  59546-4 0  9993","TIME_SYSTEM":"UTC","BSTAR":"0.00005954600000","SEMIMAJOR_AXIS":"6925.337","APOAPSIS":"547.337","ARG_OF_PERICENTER":"14.6768","DECAY_DATE":null,"OBJECT_ID":"2021-009T","FILE":"3100818","GP_ID":"183164193"},{"EPOCH":"2021-08-20T13:32:32.786304","TLE_LINE2":"2 47566  53.0544 263.1801 0000473  57.3439 302.7596 15.06389737 30551","EPHEMERIS_TYPE":"0","MEAN_MOTION_DDOT":"0.0000000000000","MEAN_MOTION_DOT":"0.00000462","MEAN_MOTION":"15.06389737","OBJECT_NAME":"STARLINK-1965","ELEMENT_SET_NO":"999","PERIOD":"95.593","REV_AT_EPOCH":"3055","LAUNCH_DATE":"2021-02-04","MEAN_ELEMENT_THEORY":"SGP4","RCS_SIZE":"LARGE","COUNTRY_CODE":"US","NORAD_CAT_ID":"47566","MEAN_ANOMALY":"302.7596","INCLINATION":"53.0544","SITE":"AFETR","REF_FRAME":"TEME","PERIAPSIS":"546.917","ARG_OF_PERICENTER":"57.3439","APOAPSIS":"547.573","FILE":"3100512","OBJECT_ID":"2021-009U","DECAY_DATE":null,"GP_ID":"183155317","CLASSIFICATION_TYPE":"U","CENTER_NAME":"EARTH","RA_OF_ASC_NODE":"263.1801","OBJECT_TYPE":"PAYLOAD","ECCENTRICITY":"0.00004730","BSTAR":"0.00004989500000","TLE_LINE1":"1 47566U 21009U   21232.56426836  .00000462  00000-0  49895-4 0  9991","TIME_SYSTEM":"UTC","SEMIMAJOR_AXIS":"6925.380"},{"RCS_SIZE":"LARGE","COUNTRY_CODE":"US","LAUNCH_DATE":"2021-02-04","REV_AT_EPOCH":"3072","MEAN_ELEMENT_THEORY":"SGP4","NORAD_CAT_ID":"47567","INCLINATION":"53.0553","MEAN_ANOMALY":"246.1507","PERIAPSIS":"546.588","SITE":"AFETR","REF_FRAME":"TEME","EPOCH":"2021-08-21T11:07:37.893792","MEAN_MOTION_DDOT":"0.0000000000000","TLE_LINE2":"2 47567  53.0553 299.1502 0000929 113.9579 246.1507 15.06394336 30722","EPHEMERIS_TYPE":"0","MEAN_MOTION_DOT":"0.00001056","PERIOD":"95.592","ELEMENT_SET_NO":"999","OBJECT_NAME":"STARLINK-1966","MEAN_MOTION":"15.06394336","RA_OF_ASC_NODE":"299.1502","CENTER_NAME":"EARTH","CLASSIFICATION_TYPE":"U","ECCENTRICITY":"0.00009290","OBJECT_TYPE":"PAYLOAD","TIME_SYSTEM":"UTC","TLE_LINE1":"1 47567U 21009V   21233.46363303  .00001056  00000-0  89779-4 0  9996","BSTAR":"0.00008977900000","SEMIMAJOR_AXIS":"6925.366","APOAPSIS":"547.874","ARG_OF_PERICENTER":"113.9579","DECAY_DATE":null,"OBJECT_ID":"2021-009V","FILE":"3100818","GP_ID":"183164202"},{"BSTAR":"-0.00007495000000","TLE_LINE1":"1 47568U 21009W   21232.62692426 -.00001397  00000-0 -74950-4 0  9990","TIME_SYSTEM":"UTC","SEMIMAJOR_AXIS":"6925.378","CLASSIFICATION_TYPE":"U","CENTER_NAME":"EARTH","RA_OF_ASC_NODE":"302.9196","OBJECT_TYPE":"PAYLOAD","ECCENTRICITY":"0.00006560","FILE":"3100512","OBJECT_ID":"2021-009W","DECAY_DATE":null,"GP_ID":"183155818","ARG_OF_PERICENTER":"107.0782","APOAPSIS":"547.698","MEAN_ANOMALY":"253.0278","INCLINATION":"53.0543","SITE":"AFETR","REF_FRAME":"TEME","PERIAPSIS":"546.789","REV_AT_EPOCH":"3000","LAUNCH_DATE":"2021-02-04","MEAN_ELEMENT_THEORY":"SGP4","COUNTRY_CODE":"US","RCS_SIZE":"LARGE","NORAD_CAT_ID":"47568","MEAN_MOTION_DOT":"-0.00001397","MEAN_MOTION":"15.06390291","OBJECT_NAME":"STARLINK-1967","ELEMENT_SET_NO":"999","PERIOD":"95.593","EPOCH":"2021-08-20T15:02:46.256064","EPHEMERIS_TYPE":"0","TLE_LINE2":"2 47568  53.0543 302.9196 0000656 107.0782 253.0278 15.06390291 30000","MEAN_MOTION_DDOT":"0.0000000000000"},{"GP_ID":"183164206","OBJECT_ID":"2021-009X","DECAY_DATE":null,"FILE":"3100803","APOAPSIS":"553.336","ARG_OF_PERICENTER":"23.9733","SEMIMAJOR_AXIS":"6925.350","TLE_LINE1":"1 47569U 21009X   21233.38206057  .00000253  00000-0  36102-4 0  9991","TIME_SYSTEM":"UTC","BSTAR":"0.00003610200000","ECCENTRICITY":"0.00088380","OBJECT_TYPE":"PAYLOAD","CENTER_NAME":"EARTH","RA_OF_ASC_NODE":"274.4217","CLASSIFICATION_TYPE":"U","ELEMENT_SET_NO":"999","PERIOD":"95.592","MEAN_MOTION":"15.06399405","OBJECT_NAME":"STARLINK-1968","MEAN_MOTION_DOT":"0.00000253","TLE_LINE2":"2 47569  53.0760 274.4217 0008838  23.9733 336.1666 15.06399405 31079","EPHEMERIS_TYPE":"0","MEAN_MOTION_DDOT":"0.0000000000000","EPOCH":"2021-08-21T09:10:10.033248","PERIAPSIS":"541.095","SITE":"AFETR","REF_FRAME":"TEME","MEAN_ANOMALY":"336.1666","INCLINATION":"53.0760","NORAD_CAT_ID":"47569","LAUNCH_DATE":"2021-02-04","MEAN_ELEMENT_THEORY":"SGP4","REV_AT_EPOCH":"3107","RCS_SIZE":"LARGE","COUNTRY_CODE":"US"},{"PERIAPSIS":"546.863","REF_FRAME":"TEME","SITE":"AFETR","INCLINATION":"53.0551","MEAN_ANOMALY":"260.2805","NORAD_CAT_ID":"47570","RCS_SIZE":"LARGE","COUNTRY_CODE":"US","MEAN_ELEMENT_THEORY":"SGP4","LAUNCH_DATE":"2021-02-04","REV_AT_EPOCH":"3054","PERIOD":"95.592","ELEMENT_SET_NO":"999","MEAN_MOTION":"15.06401568","OBJECT_NAME":"STARLINK-1969","MEAN_MOTION_DOT":"0.00000652","MEAN_MOTION_DDOT":"0.0000000000000","EPHEMERIS_TYPE":"0","TLE_LINE2":"2 47570  53.0551 263.5391 0000499  99.8240 260.2805 15.06401568 30548","EPOCH":"2021-08-20T11:41:05.355456","SEMIMAJOR_AXIS":"6925.344","TIME_SYSTEM":"UTC","TLE_LINE1":"1 47570U 21009Y   21232.48686754  .00000652  00000-0  62621-4 0  9997","BSTAR":"0.00006262100000","ECCENTRICITY":"0.00004990","OBJECT_TYPE":"PAYLOAD","RA_OF_ASC_NODE":"263.5391","CENTER_NAME":"EARTH","CLASSIFICATION_TYPE":"U","GP_ID":"183154817","DECAY_DATE":null,"OBJECT_ID":"2021-009Y","FILE":"3100512","APOAPSIS":"547.554","ARG_OF_PERICENTER":"99.8240"},{"NORAD_CAT_ID":"47571","LAUNCH_DATE":"2021-02-04","REV_AT_EPOCH":"3109","MEAN_ELEMENT_THEORY":"SGP4","RCS_SIZE":"LARGE","COUNTRY_CODE":"US","PERIAPSIS":"547.176","SITE":"AFETR","REF_FRAME":"TEME","MEAN_ANOMALY":"121.8728","INCLINATION":"53.0552","TLE_LINE2":"2 47571  53.0552 270.8046 0000106 238.2250 121.8728 15.06388178 31091","EPHEMERIS_TYPE":"0","MEAN_MOTION_DDOT":"0.0000000000000","EPOCH":"2021-08-21T02:15:32.214240","ELEMENT_SET_NO":"999","PERIOD":"95.593","OBJECT_NAME":"STARLINK-1970","MEAN_MOTION":"15.06388178","MEAN_MOTION_DOT":"0.00000470","ECCENTRICITY":"0.00001060","OBJECT_TYPE":"PAYLOAD","CENTER_NAME":"EARTH","RA_OF_ASC_NODE":"270.8046","CLASSIFICATION_TYPE":"U","SEMIMAJOR_AXIS":"6925.385","TLE_LINE1":"1 47571U 21009Z   21233.09412285  .00000470  00000-0  50431-4 0  9996","TIME_SYSTEM":"UTC","BSTAR":"0.00005043100000","APOAPSIS":"547.323","ARG_OF_PERICENTER":"238.2250","GP_ID":"183160478","OBJECT_ID":"2021-009Z","DECAY_DATE":null,"FILE":"3100650"},{"GP_ID":"183156319","FILE":"3100512","DECAY_DATE":null,"OBJECT_ID":"2021-009AA","ARG_OF_PERICENTER":"109.0008","APOAPSIS":"547.497","SEMIMAJOR_AXIS":"6925.369","BSTAR":"0.00004785000000","TLE_LINE1":"1 47572U 21009AA  21232.81029930  .00000432  00000-0  47850-4 0  9996","TIME_SYSTEM":"UTC","OBJECT_TYPE":"PAYLOAD","ECCENTRICITY":"0.00003800","CLASSIFICATION_TYPE":"U","RA_OF_ASC_NODE":"272.0708","CENTER_NAME":"EARTH","OBJECT_NAME":"STARLINK-1971","MEAN_MOTION":"15.06393309","PERIOD":"95.593","ELEMENT_SET_NO":"999","MEAN_MOTION_DOT":"0.00000432","MEAN_MOTION_DDOT":"0.0000000000000","TLE_LINE2":"2 47572  53.0540 272.0708 0000380 109.0008 251.1022 15.06393309 30453","EPHEMERIS_TYPE":"0","EPOCH":"2021-08-20T19:26:49.859520","REF_FRAME":"TEME","SITE":"AFETR","PERIAPSIS":"546.971","INCLINATION":"53.0540","MEAN_ANOMALY":"251.1022","NORAD_CAT_ID":"47572","RCS_SIZE":"LARGE","COUNTRY_CODE":"US","LAUNCH_DATE":"2021-02-04","REV_AT_EPOCH":"3045","MEAN_ELEMENT_THEORY":"SGP4"},{"APOAPSIS":"547.439","ARG_OF_PERICENTER":"137.2042","OBJECT_ID":"2021-009AB","DECAY_DATE":null,"FILE":"3100451","GP_ID":"183132102","CENTER_NAME":"EARTH","RA_OF_ASC_NODE":"273.9865","CLASSIFICATION_TYPE":"U","ECCENTRICITY":"0.00003160","OBJECT_TYPE":"PAYLOAD","TLE_LINE1":"1 47573U 21009AB  21232.39009883  .00000373  00000-0  43885-4 0  9993","TIME_SYSTEM":"UTC","BSTAR":"0.00004388500000","SEMIMAJOR_AXIS":"6925.355","EPOCH":"2021-08-20T09:21:44.538912","TLE_LINE2":"2 47573  53.0509 273.9865 0000316 137.2042 222.8972 15.06397902 30983","EPHEMERIS_TYPE":"0","MEAN_MOTION_DDOT":"0.0000000000000","MEAN_MOTION_DOT":"0.00000373","ELEMENT_SET_NO":"999","PERIOD":"95.592","OBJECT_NAME":"STARLINK-1975","MEAN_MOTION":"15.06397902","MEAN_ELEMENT_THEORY":"SGP4","LAUNCH_DATE":"2021-02-04","REV_AT_EPOCH":"3098","RCS_SIZE":"LARGE","COUNTRY_CODE":"US","NORAD_CAT_ID":"47573","MEAN_ANOMALY":"222.8972","INCLINATION":"53.0509","PERIAPSIS":"547.001","SITE":"AFETR","REF_FRAME":"TEME"}];
